[{"OBJECT_NAME":"GAOFEN-9 03","OBJECT_ID":"2020-039A","EPOCH":"2026-03-09T21:55:15.121344","MEAN_MOTION":15.30529116,"ECCENTRICITY":0.0013094,"INCLINATION":97.5219,"RA_OF_ASC_NODE":201.2158,"ARG_OF_PERICENTER":77.4533,"MEAN_ANOMALY":282.8172,"EPHEMERIS_TYPE":0,"CLASSIFICATION_TYPE":"U","NORAD_CAT_ID":45794,"ELEMENT_SET_NO":999,"REV_AT_EPOCH":31856,"BSTAR":0.00039258132,"MEAN_MOTION_DOT":0.00011544,"MEAN_MOTION_DDOT":0},{"OBJECT_NAME":"STARLINK-36154","OBJECT_ID":"2025-286Q","EPOCH":"2026-03-09T01:55:57.837792","MEAN_MOTION":15.30172711,"ECCENTRICITY":0.00012955,"INCLINATION":53.1618,"RA_OF_ASC_NODE":1.2703,"ARG_OF_PERICENTER":54.3015,"MEAN_ANOMALY":305.8106,"EPHEMERIS_TYPE":0,"CLASSIFICATION_TYPE":"U","NORAD_CAT_ID":66939,"ELEMENT_SET_NO":999,"REV_AT_EPOCH":1532,"BSTAR":0.0016559149,"MEAN_MOTION_DOT":0.00048966,"MEAN_MOTION_DDOT":0}]
